line1,line2,validFromUtcTime
1 00000U 00000E   26001.00000000  .00000000  00000-0  27772-4 0    01,2 00000  88.8591 105.3338 0010094 269.4699 112.9943 13.55327428    02,2026-01-01T00:00:00Z
1 00000U 00000E   26002.00000000  .00000000  00000-0  27772-4 0    02,2 00000  88.8591 105.2177 0010094 266.5601 312.1715 13.55327466    06,2026-01-02T00:00:00Z
